STARLINK-30967          
1 58416U 23180Q   26038.50921913  .00000218  00000+0  31208-4 0  9995
2 58416  43.0027 220.1369 0001262 257.7378 102.3323 15.02535394123046
STARLINK-30955          
1 58417U 23180R   26038.48258263  .00000434  00000+0  47158-4 0  9995
2 58417  42.9994 219.9350 0000877 226.3094 133.7676 15.02545635123040
STARLINK-30895          
1 58418U 23180S   26037.49873568  .00000164  00000+0  27201-4 0  9994
2 58418  43.0011 225.4696 0000809 283.0912  76.9840 15.02534540122786
STARLINK-30917          
1 58419U 23180T   26039.24534207  .00005745  00000+0  21808-3 0  9990
2 58419  42.9882 110.0208 0004708 155.2585 204.8493 15.27584364124398
STARLINK-30899          
1 58420U 23180U   26038.82163149 -.00000027  00000+0  13052-4 0  9990
2 58420  43.0021 218.1939 0001275 262.1613  97.9084 15.02534374122983
STARLINK-30902          
1 58421U 23180V   26038.46927294  .00001226  00000+0  10579-3 0  9991
2 58421  43.0011 219.8491 0001327 275.3622  84.7069 15.02536858122939
STARLINK-30912          
1 58422U 23180W   26039.10828673  .00004830  00000+0  18487-3 0  9995
2 58422  43.0016  77.3527 0002173 261.1674  98.8932 15.27590281124778
STARLINK-30900          
1 58423U 23180X   26038.49922559 -.00000324  00000+0 -89284-5 0  9996
2 58423  43.0005 220.0186 0001232 268.3129  91.7573 15.02531843122935
STARLINK-30908          
1 58424U 23180Y   26037.81643463 -.00001271  00000+0 -78927-4 0  9999
2 58424  43.0086 222.6024 0004002 257.5735 102.4659 15.02539183122957
STARLINK-30869          
1 58437U 23183A   26038.77874831  .00001141  00000+0  99505-4 0  9996
2 58437  43.0025 205.9547 0001588 255.8372 104.2294 15.02538209122214
STARLINK-30969          
1 58438U 23183B   26038.78208238  .00000819  00000+0  75703-4 0  9995
2 58438  42.9996 205.9785 0001257 211.7956 148.2810 15.02533910122212
STARLINK-30951          
1 58439U 23183C   26038.50950560  .00001029  00000+0  91255-4 0  9992
2 58439  43.0015 207.3760 0001190 266.3527  93.7179 15.02538901122174
STARLINK-30950          
1 58440U 23183D   26039.26905312  .00001984  00000+0  81568-4 0  9999
2 58440  43.0010  11.2791 0000790 245.8709 114.2061 15.27589745124536
STARLINK-30942          
1 58441U 23183E   26038.49285294 -.00000475  00000+0 -20105-4 0  9990
2 58441  43.0005 207.2519 0000431 299.9256  60.1543 15.02534285122179
STARLINK-30959          
1 58442U 23183F   26037.48903476  .00000615  00000+0  60625-4 0  9993
2 58442  43.0020 212.6224 0001352 253.3947 106.6747 15.02539535122023
STARLINK-30971          
1 58443U 23183G   26038.49619450 -.00000279  00000+0 -55879-5 0  9996
2 58443  43.0022 207.2706 0001249 270.8181  89.2518 15.02532050122173
