[{"OBJECT_NAME":"STARLINK-30967","OBJECT_ID":"2023-180Q","EPOCH":"2026-02-07T12:13:16.532832","MEAN_MOTION":15.02535394,"ECCENTRICITY":0.00012621,"INCLINATION":43.0027,"RA_OF_ASC_NODE":220.1369,"ARG_OF_PERICENTER":257.7378,"MEAN_ANOMALY":102.3323,"EPHEMERIS_TYPE":0,"CLASSIFICATION_TYPE":"U","NORAD_CAT_ID":58416,"ELEMENT_SET_NO":999,"REV_AT_EPOCH":12304,"BSTAR":3.120807e-5,"MEAN_MOTION_DOT":2.18e-6,"MEAN_MOTION_DDOT":0},{"OBJECT_NAME":"STARLINK-30955","OBJECT_ID":"2023-180R","EPOCH":"2026-02-07T11:34:55.139232","MEAN_MOTION":15.02545635,"ECCENTRICITY":8.779e-5,"INCLINATION":42.9994,"RA_OF_ASC_NODE":219.935,"ARG_OF_PERICENTER":226.3094,"MEAN_ANOMALY":133.7676,"EPHEMERIS_TYPE":0,"CLASSIFICATION_TYPE":"U","NORAD_CAT_ID":58417,"ELEMENT_SET_NO":999,"REV_AT_EPOCH":12304,"BSTAR":4.7158142e-5,"MEAN_MOTION_DOT":4.34e-6,"MEAN_MOTION_DDOT":0},{"OBJECT_NAME":"STARLINK-30895","OBJECT_ID":"2023-180S","EPOCH":"2026-02-06T11:58:10.762752","MEAN_MOTION":15.0253454,"ECCENTRICITY":8.094e-5,"INCLINATION":43.0011,"RA_OF_ASC_NODE":225.4696,"ARG_OF_PERICENTER":283.0912,"MEAN_ANOMALY":76.984,"EPHEMERIS_TYPE":0,"CLASSIFICATION_TYPE":"U","NORAD_CAT_ID":58418,"ELEMENT_SET_NO":999,"REV_AT_EPOCH":12278,"BSTAR":2.7201091e-5,"MEAN_MOTION_DOT":1.64e-6,"MEAN_MOTION_DDOT":0},{"OBJECT_NAME":"STARLINK-30917","OBJECT_ID":"2023-180T","EPOCH":"2026-02-08T05:53:17.554848","MEAN_MOTION":15.27584364,"ECCENTRICITY":0.00047089,"INCLINATION":42.9882,"RA_OF_ASC_NODE":110.0208,"ARG_OF_PERICENTER":155.2585,"MEAN_ANOMALY":204.8493,"EPHEMERIS_TYPE":0,"CLASSIFICATION_TYPE":"U","NORAD_CAT_ID":58419,"ELEMENT_SET_NO":999,"REV_AT_EPOCH":12439,"BSTAR":0.00021808256,"MEAN_MOTION_DOT":5.745e-5,"MEAN_MOTION_DDOT":0},{"OBJECT_NAME":"STARLINK-30899","OBJECT_ID":"2023-180U","EPOCH":"2026-02-07T19:43:08.960736","MEAN_MOTION":15.02534374,"ECCENTRICITY":0.0001275,"INCLINATION":43.0021,"RA_OF_ASC_NODE":218.1939,"ARG_OF_PERICENTER":262.1613,"MEAN_ANOMALY":97.9084,"EPHEMERIS_TYPE":0,"CLASSIFICATION_TYPE":"U","NORAD_CAT_ID":58420,"ELEMENT_SET_NO":999,"REV_AT_EPOCH":12298,"BSTAR":1.3052e-5,"MEAN_MOTION_DOT":-2.7e-7,"MEAN_MOTION_DDOT":0},{"OBJECT_NAME":"STARLINK-30902","OBJECT_ID":"2023-180V","EPOCH":"2026-02-07T11:15:45.182016","MEAN_MOTION":15.02536858,"ECCENTRICITY":0.00013275,"INCLINATION":43.0011,"RA_OF_ASC_NODE":219.8491,"ARG_OF_PERICENTER":275.3622,"MEAN_ANOMALY":84.7069,"EPHEMERIS_TYPE":0,"CLASSIFICATION_TYPE":"U","NORAD_CAT_ID":58421,"ELEMENT_SET_NO":999,"REV_AT_EPOCH":12293,"BSTAR":0.00010579117,"MEAN_MOTION_DOT":1.226e-5,"MEAN_MOTION_DDOT":0},{"OBJECT_NAME":"STARLINK-30912","OBJECT_ID":"2023-180W","EPOCH":"2026-02-08T02:35:55.973472","MEAN_MOTION":15.27590281,"ECCENTRICITY":0.00021737,"INCLINATION":43.0016,"RA_OF_ASC_NODE":77.3527,"ARG_OF_PERICENTER":261.1674,"MEAN_ANOMALY":98.8932,"EPHEMERIS_TYPE":0,"CLASSIFICATION_TYPE":"U","NORAD_CAT_ID":58422,"ELEMENT_SET_NO":999,"REV_AT_EPOCH":12477,"BSTAR":0.00018487423,"MEAN_MOTION_DOT":4.83e-5,"MEAN_MOTION_DDOT":0},{"OBJECT_NAME":"STARLINK-30900","OBJECT_ID":"2023-180X","EPOCH":"2026-02-07T11:58:53.090976","MEAN_MOTION":15.02531843,"ECCENTRICITY":0.00012321,"INCLINATION":43.0005,"RA_OF_ASC_NODE":220.0186,"ARG_OF_PERICENTER":268.3129,"MEAN_ANOMALY":91.7573,"EPHEMERIS_TYPE":0,"CLASSIFICATION_TYPE":"U","NORAD_CAT_ID":58423,"ELEMENT_SET_NO":999,"REV_AT_EPOCH":12293,"BSTAR":-8.928397e-6,"MEAN_MOTION_DOT":-3.24e-6,"MEAN_MOTION_DDOT":0},{"OBJECT_NAME":"STARLINK-30908","OBJECT_ID":"2023-180Y","EPOCH":"2026-02-06T19:35:39.952032","MEAN_MOTION":15.02539183,"ECCENTRICITY":0.0004002,"INCLINATION":43.0086,"RA_OF_ASC_NODE":222.6024,"ARG_OF_PERICENTER":257.5735,"MEAN_ANOMALY":102.4659,"EPHEMERIS_TYPE":0,"CLASSIFICATION_TYPE":"U","NORAD_CAT_ID":58424,"ELEMENT_SET_NO":999,"REV_AT_EPOCH":12295,"BSTAR":-7.8927e-5,"MEAN_MOTION_DOT":-1.271e-5,"MEAN_MOTION_DDOT":0},{"OBJECT_NAME":"STARLINK-30869","OBJECT_ID":"2023-183A","EPOCH":"2026-02-07T18:41:23.853984","MEAN_MOTION":15.02538209,"ECCENTRICITY":0.00015889,"INCLINATION":43.0025,"RA_OF_ASC_NODE":205.9547,"ARG_OF_PERICENTER":255.8372,"MEAN_ANOMALY":104.2294,"EPHEMERIS_TYPE":0,"CLASSIFICATION_TYPE":"U","NORAD_CAT_ID":58437,"ELEMENT_SET_NO":999,"REV_AT_EPOCH":12221,"BSTAR":9.9504815e-5,"MEAN_MOTION_DOT":1.141e-5,"MEAN_MOTION_DDOT":0},{"OBJECT_NAME":"STARLINK-30969","OBJECT_ID":"2023-183B","EPOCH":"2026-02-07T18:46:11.917632","MEAN_MOTION":15.0253391,"ECCENTRICITY":0.00012576,"INCLINATION":42.9996,"RA_OF_ASC_NODE":205.9785,"ARG_OF_PERICENTER":211.7956,"MEAN_ANOMALY":148.281,"EPHEMERIS_TYPE":0,"CLASSIFICATION_TYPE":"U","NORAD_CAT_ID":58438,"ELEMENT_SET_NO":999,"REV_AT_EPOCH":12221,"BSTAR":7.5703426e-5,"MEAN_MOTION_DOT":8.19e-6,"MEAN_MOTION_DDOT":0},{"OBJECT_NAME":"STARLINK-30951","OBJECT_ID":"2023-183C","EPOCH":"2026-02-07T12:13:41.283840","MEAN_MOTION":15.02538901,"ECCENTRICITY":0.00011906,"INCLINATION":43.0015,"RA_OF_ASC_NODE":207.376,"ARG_OF_PERICENTER":266.3527,"MEAN_ANOMALY":93.7179,"EPHEMERIS_TYPE":0,"CLASSIFICATION_TYPE":"U","NORAD_CAT_ID":58439,"ELEMENT_SET_NO":999,"REV_AT_EPOCH":12217,"BSTAR":9.1254513e-5,"MEAN_MOTION_DOT":1.029e-5,"MEAN_MOTION_DDOT":0},{"OBJECT_NAME":"STARLINK-30950","OBJECT_ID":"2023-183D","EPOCH":"2026-02-08T06:27:26.189568","MEAN_MOTION":15.27589745,"ECCENTRICITY":7.902e-5,"INCLINATION":43.001,"RA_OF_ASC_NODE":11.2791,"ARG_OF_PERICENTER":245.8709,"MEAN_ANOMALY":114.2061,"EPHEMERIS_TYPE":0,"CLASSIFICATION_TYPE":"U","NORAD_CAT_ID":58440,"ELEMENT_SET_NO":999,"REV_AT_EPOCH":12453,"BSTAR":8.1567762e-5,"MEAN_MOTION_DOT":1.984e-5,"MEAN_MOTION_DDOT":0},{"OBJECT_NAME":"STARLINK-30942","OBJECT_ID":"2023-183E","EPOCH":"2026-02-07T11:49:42.494016","MEAN_MOTION":15.02534285,"ECCENTRICITY":4.31e-5,"INCLINATION":43.0005,"RA_OF_ASC_NODE":207.2519,"ARG_OF_PERICENTER":299.9256,"MEAN_ANOMALY":60.1543,"EPHEMERIS_TYPE":0,"CLASSIFICATION_TYPE":"U","NORAD_CAT_ID":58441,"ELEMENT_SET_NO":999,"REV_AT_EPOCH":12217,"BSTAR":-2.0104878e-5,"MEAN_MOTION_DOT":-4.75e-6,"MEAN_MOTION_DDOT":0},{"OBJECT_NAME":"STARLINK-30959","OBJECT_ID":"2023-183F","EPOCH":"2026-02-06T11:44:12.603264","MEAN_MOTION":15.02539535,"ECCENTRICITY":0.0001352,"INCLINATION":43.002,"RA_OF_ASC_NODE":212.6224,"ARG_OF_PERICENTER":253.3947,"MEAN_ANOMALY":106.6747,"EPHEMERIS_TYPE":0,"CLASSIFICATION_TYPE":"U","NORAD_CAT_ID":58442,"ELEMENT_SET_NO":999,"REV_AT_EPOCH":12202,"BSTAR":6.0624962e-5,"MEAN_MOTION_DOT":6.15e-6,"MEAN_MOTION_DDOT":0},{"OBJECT_NAME":"STARLINK-30971","OBJECT_ID":"2023-183G","EPOCH":"2026-02-07T11:54:31.204800","MEAN_MOTION":15.0253205,"ECCENTRICITY":0.00012493,"INCLINATION":43.0022,"RA_OF_ASC_NODE":207.2706,"ARG_OF_PERICENTER":270.8181,"MEAN_ANOMALY":89.2518,"EPHEMERIS_TYPE":0,"CLASSIFICATION_TYPE":"U","NORAD_CAT_ID":58443,"ELEMENT_SET_NO":999,"REV_AT_EPOCH":12217,"BSTAR":-5.587946e-6,"MEAN_MOTION_DOT":-2.79e-6,"MEAN_MOTION_DDOT":0}]
